ONEWEB-0536             
1 54148U 22138AM  26187.68904789 -.00000032  00000+0 -11075-3 0  9996
2 54148  87.9181 270.5693 0002944  88.5818 271.5652 13.20773057181875
ONEWEB-0527             
1 54642U 22166A   26187.63062583  .00000048  00000+0  85129-4 0  9995
2 54642  87.9238 240.1280 0002076  98.6092 261.5277 13.21826962174109
ONEWEB-0528             
1 54643U 22166B   26187.63145977  .00000027  00000+0  32759-4 0  9993
2 54643  87.9239 240.1305 0002139 103.6069 256.5304 13.21825266174112
ONEWEB-0539             
1 54644U 22166C   26187.66928522 -.00000045  00000+0 -14027-3 0  9991
2 54644  87.9246 240.0957 0001867  95.1951 264.9396 13.21828339174113
ONEWEB-0540             
1 54645U 22166D   26187.67615648 -.00000055  00000+0 -16464-3 0  9993
2 54645  87.9238 240.1232 0002018  94.0265 266.1100 13.21823986174106
ONEWEB-0542             
1 54646U 22166E   26187.67940307 -.00000067  00000+0 -19445-3 0  9992
2 54646  87.9247 240.0925 0001799  92.4339 267.7001 13.21825758174111
ONEWEB-0545             
1 54647U 22166F   26188.09826079  .00000078  00000+0  15616-3 0  9995
2 54647  87.9239 240.0196 0001673  83.4466 276.6859 13.21825702174136
ONEWEB-0580             
1 54648U 22166G   26188.14868860  .00000028  00000+0  35134-4 0  9999
2 54648  87.9239 240.0091 0001934  85.0450 275.0905 13.21823419174185
ONEWEB-0582             
1 54649U 22166H   26187.66089021 -.00003989  00000+0 -96926-2 0  9995
2 54649  87.9255 240.0968 0000995 108.0321 252.0921 13.21846414174099
ONEWEB-0583             
1 54650U 22166J   26188.12685437 -.00000008  00000+0 -50018-4 0  9995
2 54650  87.9238 240.0297 0002004  95.5851 264.5511 13.21825596174167
ONEWEB-0584             
1 54651U 22166K   26188.14702318  .00000041  00000+0  66615-4 0  9991
2 54651  87.9237 240.0103 0002078  94.1876 265.9495 13.21824843174155
ONEWEB-0585             
1 54652U 22166L   26188.09487457  .00000080  00000+0  16161-3 0  9993
2 54652  87.9241 240.0087 0002183 100.2738 259.8642 13.21827671174153
ONEWEB-0586             
1 54653U 22166M   26188.10835322  .00000046  00000+0  80294-4 0  9995
2 54653  87.9239 240.0314 0001906  94.8395 265.2957 13.21825268174153
ONEWEB-0587             
1 54654U 22166N   26187.66426745  .00000030  00000+0  41070-4 0  9993
2 54654  87.9251 240.0951 0002335 102.4225 257.7171 13.21825457174255
ONEWEB-0589             
1 54655U 22166P   26188.10498833  .00000078  00000+0  15828-3 0  9994
2 54655  87.9235 240.0171 0001696  73.1701 286.9619 13.21825325174170
ONEWEB-0590             
1 54656U 22166Q   26188.13006713 -.00000002  00000+0 -35800-4 0  9992
2 54656  87.9245 240.0042 0002407  88.5114 271.6296 13.21825598174161
ONEWEB-0591             
1 54657U 22166R   26187.68780124 -.00000019  00000+0 -77770-4 0  9997
2 54657  87.9239 240.1051 0002109  94.1643 265.9732 13.21827650174134
ONEWEB-0592             
1 54658U 22166S   26187.69115301 -.00000004  00000+0 -41913-4 0  9992
2 54658  87.9248 240.0843 0002056  96.2015 263.9354 13.21823510174016
ONEWEB-0593             
1 54659U 22166T   26188.09152433  .00000065  00000+0  12679-3 0  9996
2 54659  87.9239 240.0154 0001908  96.5463 263.5888 13.21825757174177
ONEWEB-0594             
1 54660U 22166U   26187.65751669  .00000014  00000+0  14458-5 0  9998
2 54660  87.9240 240.1175 0002139 101.8339 258.3034 13.21824299174135
ONEWEB-0595             
1 54661U 22166V   26187.63398498  .00000064  00000+0  12328-3 0  9991
2 54661  87.9249 240.1048 0002307  99.9838 260.1556 13.21825280174100
ONEWEB-0596             
1 54662U 22166W   26187.68442632 -.00000037  00000+0 -12018-3 0  9995
2 54662  87.9240 240.1045 0002157  96.9260 263.2119 13.21828007174118
ONEWEB-0597             
1 54663U 22166X   26188.04440558  .00000027  00000+0  32823-4 0  9996
2 54663  87.9237 240.0359 0001952  94.7448 265.3909 13.21827670174168
ONEWEB-0600             
1 54664U 22166Y   26187.64744567  .00000044  00000+0  74376-4 0  9997
2 54664  87.9239 240.1063 0001901 100.1833 259.9515 13.21825493174082
ONEWEB-0601             
1 54665U 22166Z   26188.09319933  .00000134  00000+0  29197-3 0  9993
2 54665  87.9236 240.0335 0001840  91.7757 268.3587 13.21824640174337
ONEWEB-0602             
1 54666U 22166AA  26187.68022023 -.00000070  00000+0 -20050-3 0  9999
2 54666  87.9237 240.1214 0001835 101.0909 259.0432 13.21827791174127
ONEWEB-0603             
1 54667U 22166AB  26187.68611459 -.00000016  00000+0 -70098-4 0  9995
2 54667  87.9250 240.0792 0001958  95.6853 264.4505 13.21827371174052
ONEWEB-0604             
1 54668U 22166AC  26188.12850568 -.00000020  00000+0 -80392-4 0  9995
2 54668  87.9248 240.0072 0002112  99.1580 260.9793 13.21823590174071
ONEWEB-0605             
1 54669U 22166AD  26187.66760965 -.00000054  00000+0 -16283-3 0  9999
2 54669  87.9239 240.1105 0002144  79.8989 280.2387 13.21827961174084
ONEWEB-0606             
1 54670U 22166AE  26188.14365821  .00000022  00000+0  20628-4 0  9999
2 54670  87.9240 240.0280 0002127 100.8594 259.2780 13.21825254174209
ONEWEB-0607             
1 54671U 22166AF  26188.11003419  .00000047  00000+0  81644-4 0  9991
2 54671  87.9245 240.0072 0001901  95.9522 264.1829 13.21825285174177
